0015P         2021 07 13.5056  0.992902  0.716993  347.8733   13.7103    6.7978  20230307  12.0  4.0  15P/Finlay                                               MPEC 2022-ED3
0016P         2021 04 18.4609  1.879246  0.486424  245.2591  138.8678    3.0114  20230307   7.5 10.0  16P/Brooks                                               MPEC 2022-X67
0017P         2021 02 19.9449  2.083021  0.427446   24.5685  326.6280   19.0274  20230307  10.0  6.0  17P/Holmes                                               MPEC 2023-BF4
0019P         2022 02  1.8688  1.306267  0.637807  351.9407   74.2323   29.3062  20230307   4.5 10.0  19P/Borrelly                                             MPEC 2023-BF4
0021P         2025 03 25.4123  1.009081  0.711254  172.8935  195.3453   32.0592  20230307  11.4  4.0  21P/Giacobini-Zinner                                     MPEC 2021-F20
0022P         2022 03 18.1677  1.550454  0.549386  163.0108  120.7679    4.7415  20230307   3.0 10.4  22P/Kopff                                                MPEC 2023-BF4
0023P         1989 08 10.6834  0.472151  0.972133  129.1910  311.9966   19.2432  20230307  10.0  6.0  23P/Brorsen-Metcalf                                      MPC 14747
0024P         2026 01  8.8459  1.185234  0.707727   58.4462   78.3311   11.5040  20230307   6.5 14.0  24P/Schaumasse                                           MPC110085
0026P         2023 12 25.3668  1.084016  0.640502    2.1491  211.5407   22.4329  20230307  12.0 16.0  26P/Grigg-Skjellerup                                     MPEC 2022-Y15
0027P         2011 07 24.9814  0.743291  0.919038  195.8574  250.6705   29.3628  20230307  12.0  8.0  27P/Crommelin                                            MPC 78188
0028P         2021 03 11.7857  1.580657  0.773593  347.4653  346.3421   14.3107  20230307   8.5  6.0  28P/Neujmin                                              MPEC 2023-CD7
0029P         2019 04 22.4741  5.777873  0.044686   51.1157  312.3978    9.3633  20230307   4.0  4.0  29P/Schwassmann-Wachmann                                 MPEC 2023-E49
0030P         2024 08 16.9857  1.806294  0.516033    9.4587  117.5053    8.0604  20230307   9.5  6.0  30P/Reinmuth                                             MPEC 2023-CD7
0031P         2019 07  3.3777  3.420449  0.192381   17.8890  114.1048    4.5484  20230307  13.1  4.0  31P/Schwassmann-Wachmann                                 MPEC 2021-F20
0032P         2024 04 20.3874  2.020088  0.556714   54.7702   54.5818    9.9095  20230307   6.5  8.0  32P/ComasSola                                            MPEC 2022-K19
0033P         2024 11 11.6190  2.241114  0.451824   20.4600   66.2982   22.2940  20230307  10.0 12.0  33P/Daniel                                               MPEC 2013-O31
0035P         2092 02 14.442   0.73079   0.97440    28.986   356.703    65.227   20230307   9.0  4.0  35P/Herschel-Rigollet                                     15   452
0036P         2020 06  1.9796  3.024105  0.269070  201.0510  181.8410    9.9528  20230307   8.5  6.0  36P/Whipple                                              MPEC 2022-ED3
0037P         2024 10 11.2317  1.616532  0.533046  330.0992  314.5664    8.9511  20230307  13.8  4.0  37P/Forbes                                               MPEC 2021-F20
0038P         2018 11 11.9735  1.579311  0.859479  359.5070   77.8986   18.3925  20230307   3.5 12.0  38P/Stephan-Oterma                                       MPEC 2018-S50
0039P         2023 07  2.5401  5.708286  0.214576  101.2817  297.0506    1.5435  20230307   7.0  6.0  39P/Oterma                                               MPEC 2022-A21
0040P         2025 11 14.8041  1.828971  0.630931   47.4628  133.6622   11.4630  20230307   5.5 12.0  40P/Vaisala                                              MPC100283
0041P         2022 09 13.4049  1.050169  0.659907   62.2093  140.9883    9.2206  20230307  10.0 16.0  41P/Tuttle-Giacobini-Kresak                              MPC105240
0042P         2026 01 14.6513  2.024888  0.584564  147.2242  150.1756    3.9909  20230307  13.0  6.0  42P/Neujmin                                              MPC 94283
0043P         2025 08  6.1144  2.440085  0.435250  224.0716  244.0260    9.3314  20230307   8.0  6.0  43P/Wolf-Harrington                                      MPEC 2022-C56
0044P         2022 04 23.0270  2.112200  0.427414   58.0397  286.4286    5.8968  20230307   8.3  6.0  44P/Reinmuth                                             MPEC 2023-D72
0045P         2022 04 26.9751  0.557147  0.817673  327.9224   87.6909    4.3230  20230307  13.5  8.0  45P/Honda-Mrkos-Pajdusakova                              MPEC 2022-O01
0046P         2024 05 19.5192  1.055071  0.658735  356.3279   82.1622   11.7495  20230307  14.0  6.0  46P/Wirtanen                                             MPEC 2021-O56
0047P         2025 10 27.2448  2.808100  0.318712  357.7595  356.9181   13.0401  20230307  12.2  4.0  47P/Ashbrook-Jackson                                     MPEC 2021-F20
0048P         2025 03  2.4088  2.005644  0.427132  216.7442  110.0911   12.2006  20230307  12.4  4.0  48P/Johnson                                              MPEC 2021-F20
0049P         2025 04 10.8360  1.432711  0.598610  332.9211  118.7915   19.0529  20230307  13.4  4.0  49P/Arend-Rigaux                                         MPEC 2021-F20
0050P         2024 05 12.8536  1.922583  0.529632   49.3524  355.1740   19.1010  20230307   9.5  6.0  50P/Arend                                                MPEC 2015-S97
0051P         2022 10  1.2817  1.692553  0.543462  269.2579   83.6618    5.4263  20230307  10.0  8.0  51P/Harrington                                           MPEC 2022-UE6
0051P      a  2022 10  3.8422  1.692439  0.543695  269.2294   83.6620    5.4263  20230307  10.0  8.0  51P-A/Harrington                                         NK   3014
0051P      d  2022 10  1.7049  1.692236  0.543592  269.2760   83.6503    5.4268  20230307  16.0  8.0  51P-D/Harrington                                         MPEC 2022-X67
0052P         2021 10  5.1972  1.776152  0.540301  139.5596  336.8269   10.2310  20230307  13.5  6.0  52P/Harrington-Abell                                     MPEC 2022-L66
0053P         2028 12 26.3018  2.442023  0.550477  134.4940  148.8223    6.6081  20230307   7.7  4.8  53P/Van Biesbroeck                                       MPC100283
0054P         2024 09  3.7378  2.172742  0.426462    1.8943  358.8119    6.0642  20230307   9.0  4.0  54P/de Vico-Swift-NEAT                                   MPC 89011
0055P         2031 05 21.5885  0.980518  0.905320  172.4739  235.4200  162.5046  20230307   9.0  4.0  55P/Tempel-Tuttle                                        MPC 31070
0056P         2027 12 17.9296  2.489787  0.508519   44.0471  345.9793    8.1594  20230307   8.5  6.0  56P/Slaughter-Burnham                                    MPC101100
0057P         2021 10 17.1818  1.718970  0.500847  115.1450  188.7766    2.8524  20230307  12.5  6.0  57P/duToit-Neujmin-Delporte                              MPEC 2023-CD7
0058P         2020 05 27.8095  1.378996  0.662703  200.5429  159.0746   13.1059  20230307  15.5  6.0  58P/Jackson-Neujmin                                      MPEC 2021-O56
0059P         2018 09 17.6599  2.348324  0.476184  127.5228  312.7885    9.3445  20230307   7.0  6.0  59P/Kearns-Kwee                                          MPEC 2023-A50
0060P         2025 07 21.0210  1.644598  0.533595  216.9827  267.4435    3.5803  20230307  11.5  6.0  60P/Tsuchinshan                                          MPEC 2021-F20
0061P         2022 10 23.7540  2.125780  0.423813  221.6429  162.9618    5.9995  20230307   6.0 10.0  61P/Shajn-Schaldach                                      MPEC 2023-E49
0062P         2023 12 25.0163  1.263911  0.624941   47.3192   68.6835    4.7362  20230307   8.0 10.0  62P/Tsuchinshan                                          MPC109147
0063P         2026 07  8.7364  1.965879  0.649865  168.9618  358.0110   19.7199  20230307  10.5  6.0  63P/Wild                                                 MPC 84320
0064P         2018 11  5.6526  1.386155  0.688684   97.1668  299.9026    8.9490  20230307   9.5 12.0  64P/Swift-Gehrels                                        MPEC 2023-A50
0065P         2025 06 17.1063  2.923080  0.248406  213.8682   61.9849    9.1758  20230307   5.0  6.0  65P/Gunn                                                 MPEC 2023-E49
0066P         2018 05 17.7318  1.300392  0.785784  257.4876   21.7773   18.6386  20230307  15.0  4.0  66P/duToit                                               MPEC 2021-F20
0067P         2021 11  2.1501  1.210439  0.649892   22.1515   36.3289    3.8719  20230307  11.0  4.0  67P/Churyumov-Gerasimenko                                MPEC 2023-A50
0068P         2019 11  8.9394  1.799571  0.637137  153.2510  175.0474   11.1112  20230307  12.7  4.0  68P/Klemola                                              MPEC 2022-H04
0069P         2026 11 12.7969  2.276452  0.413923  343.3955  104.8058   22.0472  20230307   9.5 12.0  69P/Taylor                                               MPEC 2023-A50
0070P         2021 11  3.0799  2.008051  0.453951    1.7944  119.2552    6.5981  20230307  11.0  6.0  70P/Kojima                                               MPEC 2022-P82
0071P         2023 01 22.7810  1.588819  0.493703  209.0593   59.3936    9.4381  20230307   9.8  6.0  71P/Clark                                                MPEC 2023-E49
0072P         2023 06 15.8820  0.781046  0.818657  346.7331   26.7015   10.9487  20230307  17.5 10.0  72P/Denning-Fujikawa                                     MPC 89011
0073P         2022 08 25.8126  0.972845  0.685525  199.5083   69.5949   11.2298  20230307  11.5  6.0  73P/Schwassmann-Wachmann                                 MPEC 2023-D72
0073P      t  2022 08 27.2278  0.972705  0.685719  199.4888   69.5977   11.2317  20230307  11.5  6.0  73P-T/Schwassmann-Wachmann                               MPC106348
